FLOCK 4G-6              
1 62660U 25009BD  26068.71061311  .00012261  00000+0  45910-3 0  9991
2 62660  97.3980 150.7943 0002380 348.2637  11.8546 15.27432125121307
STARLINK-36462          
1 67321U 26002S   26067.10493762  .00041128  00000+0  14935-2 0  9991
2 67321  42.9979 334.4660 0001265 246.6854 113.3865 15.27630310 10833
